[Satellite]
VERSION=1.1
NAME=STARLINK-1350
NICKNAME=STARLINK-1350
TLE1=1 45535U 20025E   20143.58334491  .03190294  00000-0  52878-1 0  9997
TLE2=2 45535  52.9980 253.4674 0002607 335.1837 276.2811 15.47843155  5389
STATUS=0
